OBJECT_NAME,OBJECT_ID,EPOCH,MEAN_MOTION,ECCENTRICITY,INCLINATION,RA_OF_ASC_NODE,ARG_OF_PERICENTER,MEAN_ANOMALY,EPHEMERIS_TYPE,CLASSIFICATION_TYPE,NORAD_CAT_ID,ELEMENT_SET_NO,REV_AT_EPOCH,BSTAR,MEAN_MOTION_DOT,MEAN_MOTION_DDOT
STARLINK-37789,2026-131T,2026-07-09T20:00:01.999008,15.64456625,.0002147,97.2851,212.4192,93.1330,151.9706,0,U,69495,999,572,-.28404E-1,-.2391391E-1,0
STARLINK-37839,2026-131U,2026-07-09T20:00:01.999008,15.66107971,.0001922,97.2851,212.4077,94.6440,128.4992,0,U,69496,999,570,-.28278E-1,-.2523846E-1,0
STARLINK-37798,2026-131V,2026-07-09T20:00:01.999008,15.64591390,.0001918,97.2847,212.4238,94.0935,157.6266,0,U,69497,999,570,-.28661E-1,-.2421535E-1,0
STARLINK-37853,2026-131W,2026-07-09T20:00:01.999008,15.75238346,.0000953,97.2840,212.4595,79.0143,260.7080,0,U,69498,999,570,-.9232E-3,-.135942E-2,0
STARLINK-37849,2026-131X,2026-07-09T20:00:01.999008,15.61167281,.0002031,97.2854,212.4141,90.2657,139.9448,0,U,69499,999,572,-.33749E-1,-.2483197E-1,0
STARLINK-37835,2026-131Y,2026-07-09T20:00:01.999008,15.61992133,.0002218,97.2855,212.4124,91.1255,138.0096,0,U,69500,999,461,-.31495E-1,-.2404416E-1,0
STARLINK-37843,2026-131Z,2026-07-09T20:00:01.999008,15.60740421,.0002059,97.2853,212.4095,84.2339,132.8168,0,U,69501,999,570,-.33306E-1,-.2419662E-1,0
STARLINK-37536,2026-133A,2026-07-08T08:29:01.403808,15.49363079,.00006769,53.1600,217.5626,68.1109,291.9972,0,U,69508,999,409,.57055693E-3,.31472E-3,0
STARLINK-37341,2026-133B,2026-07-09T17:02:24.539136,15.49320745,.0001997,53.1584,211.1006,105.0970,255.0260,0,U,69509,999,431,.22263E-3,.11957E-3,0
STARLINK-36536,2026-133C,2026-07-09T20:00:01.999008,15.46240117,.0001008,53.1592,209.7737,109.2874,223.5800,0,U,69510,999,555,-.54223E-1,-.2411158E-1,0
STARLINK-37420,2026-133D,2026-07-09T20:00:01.999008,15.45076895,.0001316,53.1592,209.5142,100.8302,359.3396,0,U,69511,999,551,-.65268E-1,-.2740065E-1,0
STARLINK-37511,2026-133E,2026-07-09T20:00:01.999008,15.44934580,.0000769,53.1595,209.5517,97.1566,345.0132,0,U,69512,999,551,-.56379E-1,-.2397772E-1,0
STARLINK-37552,2026-133F,2026-07-09T15:28:41.930400,15.49313018,.0002189,53.1590,211.4026,56.2357,303.8860,0,U,69513,999,556,.55399E-3,.30487E-3,0
STARLINK-37607,2026-133G,2026-07-09T20:00:01.999008,15.42392314,.0001336,53.1590,209.6187,69.8134,337.9555,0,U,69514,999,551,-.71766E-1,-.2801352E-1,0
STARLINK-37232,2026-133H,2026-07-09T02:29:53.032992,15.49345959,.0001339,53.1593,213.7039,105.5484,254.5673,0,U,69515,999,421,.7468E-3,.4136E-3,0
STARLINK-37323,2026-133J,2026-07-09T20:00:01.999008,15.45048978,.0001254,53.1597,209.3864,112.0114,48.9476,0,U,69516,999,551,-.65067E-1,-.2730385E-1,0
STARLINK-37357,2026-133K,2026-07-09T13:54:45.626400,15.49311022,.0001002,53.1620,211.7055,93.7502,266.3622,0,U,69517,999,554,.72049E-3,.3983E-3,0
STARLINK-37408,2026-133L,2026-07-09T20:00:01.999008,15.49281928,.0001174,53.1600,209.7526,43.5006,296.8516,0,U,69518,999,551,.76278E-3,.42163E-3,0
STARLINK-37570,2026-133M,2026-07-09T13:23:57.862176,15.49412487,.0000707,53.1595,211.5616,102.2877,257.8211,0,U,69519,999,555,.85665E-3,.4766E-3,0
STARLINK-37510,2026-133N,2026-07-09T14:50:09.282336,15.49314390,.0000749,53.1578,211.2230,70.3501,289.7588,0,U,69520,999,556,.67142E-3,.37078E-3,0
STARLINK-37586,2026-133P,2026-07-09T20:00:01.999008,15.41736916,.0001163,53.1594,209.2839,84.8795,124.9737,0,U,69521,999,551,-.73034E-1,-.2789741E-1,0
STARLINK-37379,2026-133Q,2026-07-09T00:00:02.000160,15.49273609,.00017889,53.1602,213.8687,91.2468,211.2585,0,U,69522,999,542,.12185958E-2,.67832E-3,0
STARLINK-37429,2026-133R,2026-07-08T08:06:58.573152,15.49434063,.0001624,53.1600,217.4542,94.7805,265.3389,0,U,69523,999,536,.94937897E-3,.52945E-3,0
STARLINK-37352,2026-133S,2026-07-09T00:00:02.000160,15.49272514,.00012632,53.1602,213.8514,97.8675,212.3724,0,U,69524,999,542,.12445874E-2,.69298E-3,0
STARLINK-37490,2026-133T,2026-07-09T20:00:01.999008,15.49781550,.0001229,53.1597,209.4012,57.2671,92.7429,0,U,69525,999,556,-.31294E-1,-.1592924E-1,0
STARLINK-37438,2026-133U,2026-07-09T14:29:08.270880,15.49330245,.0001024,53.1595,211.1237,74.7736,285.3386,0,U,69526,999,556,.2889E-3,.15663E-3,0
STARLINK-37484,2026-133V,2026-07-09T20:00:01.999008,15.45519063,.0001333,53.1599,209.3171,105.6534,85.7917,0,U,69527,999,556,-.57509E-1,-.2484859E-1,0
STARLINK-37523,2026-133W,2026-07-09T00:00:02.000160,15.49272696,.00012712,53.1603,213.8178,100.9605,224.6894,0,U,69528,999,542,.12482556E-2,.69505E-3,0
STARLINK-37369,2026-133X,2026-07-09T13:59:52.783584,15.49318312,.0001006,53.1603,210.9885,59.5136,300.5972,0,U,69529,999,556,.83087E-3,.46049E-3,0
STARLINK-37670,2026-133Y,2026-07-09T14:21:26.722080,15.49309140,.0000859,53.1590,211.0854,87.4672,272.6436,0,U,69530,999,556,.5689E-3,.31318E-3,0
