STARLINK-37789          
1 69495U 26131T   26190.83335647 -.02391391  00000+0 -28404-1 0  9991
2 69495  97.2851 212.4192 0002147  93.1330 151.9706 15.64456625  5728
STARLINK-37839          
1 69496U 26131U   26190.83335647 -.02523846  00000+0 -28278-1 0  9993
2 69496  97.2851 212.4077 0001922  94.6440 128.4992 15.66107971  5702
STARLINK-37798          
1 69497U 26131V   26190.83335647 -.02421535  00000+0 -28661-1 0  9992
2 69497  97.2847 212.4238 0001918  94.0935 157.6266 15.64591390  5703
STARLINK-37853          
1 69498U 26131W   26190.83335647 -.00135942  00000+0 -92320-3 0  9990
2 69498  97.2840 212.4595 0000953  79.0143 260.7080 15.75238346  5706
STARLINK-37849          
1 69499U 26131X   26190.83335647 -.02483197  00000+0 -33749-1 0  9999
2 69499  97.2854 212.4141 0002031  90.2657 139.9448 15.61167281  5724
STARLINK-37835          
1 69500U 26131Y   26190.83335647 -.02404416  00000+0 -31495-1 0  9995
2 69500  97.2855 212.4124 0002218  91.1255 138.0096 15.61992133  4618
STARLINK-37843          
1 69501U 26131Z   26190.83335647 -.02419662  00000+0 -33306-1 0  9998
2 69501  97.2853 212.4095 0002059  84.2339 132.8168 15.60740421  5706
STARLINK-37536          
1 69508U 26133A   26189.35348847  .00031472  00000+0  57056-3 0  9993
2 69508  53.1600 217.5626 0000676  68.1109 291.9972 15.49363079  4097
STARLINK-37341          
1 69509U 26133B   26190.71000624  .00011957  00000+0  22263-3 0  9992
2 69509  53.1584 211.1006 0001997 105.0970 255.0260 15.49320745  4314
STARLINK-36536          
1 69510U 26133C   26190.83335647 -.02411158  00000+0 -54223-1 0  9993
2 69510  53.1592 209.7737 0001008 109.2874 223.5800 15.46240117  5559
STARLINK-37420          
1 69511U 26133D   26190.83335647 -.02740065  00000+0 -65268-1 0  9997
2 69511  53.1592 209.5142 0001316 100.8302 359.3396 15.45076895  5516
STARLINK-37511          
1 69512U 26133E   26190.83335647 -.02397772  00000+0 -56379-1 0  9994
2 69512  53.1595 209.5517 0000769  97.1566 345.0132 15.44934580  5510
STARLINK-37552          
1 69513U 26133F   26190.64492975  .00030487  00000+0  55399-3 0  9998
2 69513  53.1590 211.4026 0002189  56.2357 303.8860 15.49313018  5562
STARLINK-37607          
1 69514U 26133G   26190.83335647 -.02801352  00000+0 -71766-1 0  9997
2 69514  53.1590 209.6187 0001336  69.8134 337.9555 15.42392314  5519
STARLINK-37232          
1 69515U 26133H   26190.10408603  .00041360  00000+0  74680-3 0  9992
2 69515  53.1593 213.7039 0001339 105.5484 254.5673 15.49345959  4215
STARLINK-37323          
1 69516U 26133J   26190.83335647 -.02730385  00000+0 -65067-1 0  9993
2 69516  53.1597 209.3864 0001254 112.0114  48.9476 15.45048978  5513
STARLINK-37357          
1 69517U 26133K   26190.57969475  .00039830  00000+0  72049-3 0  9990
2 69517  53.1620 211.7055 0001002  93.7502 266.3622 15.49311022  5546
STARLINK-37408          
1 69518U 26133L   26190.83335647  .00042163  00000+0  76278-3 0  9999
2 69518  53.1600 209.7526 0001174  43.5006 296.8516 15.49281928  5515
STARLINK-37570          
1 69519U 26133M   26190.55830859  .00047660  00000+0  85665-3 0  9991
2 69519  53.1595 211.5616 0000707 102.2877 257.8211 15.49412487  5559
STARLINK-37510          
1 69520U 26133N   26190.61816299  .00037078  00000+0  67142-3 0  9994
2 69520  53.1578 211.2230 0000749  70.3501 289.7588 15.49314390  5562
STARLINK-37586          
1 69521U 26133P   26190.83335647 -.02789741  00000+0 -73034-1 0  9992
2 69521  53.1594 209.2839 0001163  84.8795 124.9737 15.41736916  5514
STARLINK-37379          
1 69522U 26133Q   26190.00002315  .00067832  00000+0  12186-2 0  9993
2 69522  53.1602 213.8687 0001788  91.2468 211.2585 15.49273609  5423
STARLINK-37429          
1 69523U 26133R   26189.33817793  .00052945  00000+0  94938-3 0  9997
2 69523  53.1600 217.4542 0001624  94.7805 265.3389 15.49434063  5362
STARLINK-37352          
1 69524U 26133S   26190.00002315  .00069298  00000+0  12446-2 0  9992
2 69524  53.1602 213.8514 0001263  97.8675 212.3724 15.49272514  5425
STARLINK-37490          
1 69525U 26133T   26190.83335647 -.01592924  00000+0 -31294-1 0  9992
2 69525  53.1597 209.4012 0001229  57.2671  92.7429 15.49781550  5563
STARLINK-37438          
1 69526U 26133U   26190.60356795  .00015663  00000+0  28890-3 0  9992
2 69526  53.1595 211.1237 0001024  74.7736 285.3386 15.49330245  5563
STARLINK-37484          
1 69527U 26133V   26190.83335647 -.02484859  00000+0 -57509-1 0  9999
2 69527  53.1599 209.3171 0001333 105.6534  85.7917 15.45519063  5562
STARLINK-37523          
1 69528U 26133W   26190.00002315  .00069505  00000+0  12483-2 0  9998
2 69528  53.1603 213.8178 0001271 100.9605 224.6894 15.49272696  5429
STARLINK-37369          
1 69529U 26133X   26190.58324981  .00046049  00000+0  83087-3 0  9995
2 69529  53.1603 210.9885 0001006  59.5136 300.5972 15.49318312  5569
STARLINK-37670          
1 69530U 26133Y   26190.59822595  .00031318  00000+0  56890-3 0  9997
2 69530  53.1590 211.0854 0000859  87.4672 272.6436 15.49309140  5567
